IRIDIUM 136             
1 42962U 17061H   23360.61169728  .00000391  00000+0  13260-3 0  9999
2 42962  86.3969  42.8561 0002456  99.3154 260.8319 14.34216182325326
